OBJECT_NAME,OBJECT_ID,EPOCH,MEAN_MOTION,ECCENTRICITY,INCLINATION,RA_OF_ASC_NODE,ARG_OF_PERICENTER,MEAN_ANOMALY,EPHEMERIS_TYPE,CLASSIFICATION_TYPE,NORAD_CAT_ID,ELEMENT_SET_NO,REV_AT_EPOCH,BSTAR,MEAN_MOTION_DOT,MEAN_MOTION_DDOT
COSMOS 2508 (RODNIK-S 14),2015-050B,2026-07-09T19:21:12.275712,12.42914436,.0014198,82.4864,64.0822,338.9008,21.1484,0,U,40921,999,48965,-.86877E-3,-.111E-5,0
COSMOS 2509 (RODNIK-S 15),2015-050C,2026-07-09T19:51:17.572608,12.42883931,.00149,82.4873,64.1738,355.8936,4.2019,0,U,40922,999,48969,-.82819E-3,-.105E-5,0
LINGQIAO VIDEO A,2015-057B,2026-07-09T07:19:39.938304,14.77423173,.00161513,97.6634,184.0173,192.4132,167.6684,0,U,40959,999,57867,.1040913E-3,.694E-5,0
LINGQIAO VIDEO B,2015-057C,2026-07-09T06:43:47.470656,14.77528297,.00163076,97.6598,185.1513,192.5366,167.5442,0,U,40960,999,57871,.10960292E-3,.735E-5,0
JILIN-1,2015-057D,2026-07-09T06:49:00.909120,14.78195716,.00166734,97.6515,188.5545,186.0684,174.0329,0,U,40961,999,57887,.87292055E-4,.585E-5,0
FOX-1A (AO-85),2015-058D,2026-07-09T00:24:29.327904,14.91065127,.01318917,64.7733,211.1378,48.1465,313.0815,0,U,40967,999,11682,.15541655E-3,.1641E-4,0
SINOD-D 1,2015-058E,2026-07-09T00:07:33.964608,14.96049923,.01205641,64.7734,190.5790,44.5324,316.5402,0,U,40968,999,11992,.23988919E-3,.2945E-4,0
ELEKTRO-L 2,2015-074A,2026-07-08T10:12:33.980256,1.00273098,.00006934,6.7437,70.2631,230.4230,124.3160,0,U,41105,999,3871,0,-.107E-5,0
DAMPE,2015-078A,2026-07-09T20:24:57.241728,15.30844694,.0012155,97.4567,196.4297,4.6007,355.5343,0,U,41173,999,58801,.34781E-4,.96E-5,0
ORBCOMM FM110,2015-081D,2026-07-09T05:23:25.413216,14.58913742,.00032971,47.0014,257.2427,196.7550,163.3228,0,U,41182,999,56084,.10693737E-3,.335E-5,0
ORBCOMM FM112,2015-081F,2026-07-09T14:31:57.192384,14.58932969,.0003985,46.9977,164.2335,305.2072,54.8440,0,U,41184,999,56222,.13198E-3,.453E-5,0
ORBCOMM FM113,2015-081G,2026-07-09T15:38:00.508128,14.58878427,.0002476,46.9993,164.4042,301.1460,58.9183,0,U,41185,999,56221,.79235E-4,.203E-5,0
ORBCOMM FM108,2015-081J,2026-07-09T03:13:06.419712,14.58904401,.00029274,47.0051,78.4302,300.2625,59.7971,0,U,41187,999,56328,.12629991E-3,.426E-5,0
ORBCOMM FM117,2015-081K,2026-07-08T01:44:24.310176,14.58889920,.00034342,47.0014,82.0783,302.2374,57.8178,0,U,41188,999,56317,.12375711E-3,.414E-5,0
ORBCOMM FM116,2015-081L,2026-07-09T15:04:05.673216,14.58902220,.0001341,47.0010,164.5128,214.5781,145.5017,0,U,41189,999,56221,.57341E-4,.1E-5,0
ZIYUAN 3-02 (ZY 3-02),2016-033A,2026-07-09T21:10:23.497824,15.21401220,.0013508,97.3829,266.2199,203.7965,156.2648,0,U,41556,999,56143,.16882E-3,.3726E-4,0
CARTOSAT-2C,2016-040A,2026-07-09T20:23:31.299648,15.19235223,.0009917,97.4471,250.5144,60.8319,299.3907,0,U,41599,999,55715,.81656E-4,.1653E-4,0
LAPAN-A3,2016-040E,2026-07-09T20:07:33.781152,15.33256204,.0008364,97.1498,186.2428,299.6211,60.4199,0,U,41603,999,55828,.76533E-4,.2386E-4,0
GAOFEN-3,2016-049A,2026-07-09T06:50:17.419776,14.42218672,.00017604,98.4020,197.7374,90.0645,270.0746,0,U,41727,999,52183,.586399E-4,.15E-5,0
CAS-2T & KS-1Q,2016-066G,2026-07-09T03:01:32.902464,14.44761366,.03425416,98.3814,265.6112,63.1325,300.4448,0,U,41847,999,50796,.13108027E-3,.881E-5,0
YUNHAI-1 01,2016-068A,2026-07-09T20:47:12.422400,14.32718698,.0003556,98.5853,201.6610,4.2958,355.8256,0,U,41857,999,50507,.46324E-4,.82E-6,0
RESOURCESAT-2A,2016-074A,2026-07-09T19:18:12.212928,14.21607682,.0002697,98.7518,264.1232,39.9393,320.1982,0,U,41877,999,49751,-.11393E-4,-.69E-6,0
TANSAT,2016-081A,2026-07-09T20:45:47.454048,14.59968699,.0019207,98.5374,191.7934,237.5535,122.3807,0,U,41898,999,50793,.3825E-4,.133E-5,0
JILIN-1 03,2017-002B,2026-07-09T19:20:09.125952,15.42138455,.0008022,97.1951,197.5788,93.6016,266.6149,0,U,41914,999,52534,.23064E-3,.9804E-4,0
