COSMOS 2508 (RODNIK-S *)
1 40921U 15050B   26190.80639208 -.00000111  00000+0 -86877-3 0  9994
2 40921  82.4864  64.0822 0014198 338.9008  21.1484 12.42914436489654
COSMOS 2509 (RODNIK-S *)
1 40922U 15050C   26190.82728672 -.00000105  00000+0 -82819-3 0  9996
2 40922  82.4873  64.1738 0014900 355.8936   4.2019 12.42883931489696
LINGQIAO VIDEO A        
1 40959U 15057B   26190.30532336  .00000694  00000+0  10409-3 0  9993
2 40959  97.6634 184.0173 0016151 192.4132 167.6684 14.77423173578674
LINGQIAO VIDEO B        
1 40960U 15057C   26190.28041054  .00000735  00000+0  10960-3 0  9992
2 40960  97.6598 185.1513 0016307 192.5366 167.5442 14.77528297578717
JILIN-1                 
1 40961U 15057D   26190.28403830  .00000585  00000+0  87292-4 0  9993
2 40961  97.6515 188.5545 0016673 186.0684 174.0329 14.78195716578877
FOX-1A (AO-85)          
1 40967U 15058D   26190.01700611  .00001641  00000+0  15542-3 0  9990
2 40967  64.7733 211.1378 0131891  48.1465 313.0815 14.91065127116827
SINOD-D 1               
1 40968U 15058E   26190.00525422  .00002945  00000+0  23989-3 0  9997
2 40968  64.7734 190.5790 0120564  44.5324 316.5402 14.96049923119921
ELEKTRO-L 2             
1 41105U 15074A   26189.42539329 -.00000107  00000+0  00000+0 0  9998
2 41105   6.7437  70.2631 0000693 230.4230 124.3160  1.00273098 38717
DAMPE                   
1 41173U 15078A   26190.85066252  .00000960  00000+0  34781-4 0  9990
2 41173  97.4567 196.4297 0012155   4.6007 355.5343 15.30844694588019
ORBCOMM FM110           
1 41182U 15081D   26190.22459969  .00000335  00000+0  10694-3 0  9998
2 41182  47.0014 257.2427 0003297 196.7550 163.3228 14.58913742560849
ORBCOMM FM112           
1 41184U 15081F   26190.60552306  .00000453  00000+0  13198-3 0  9994
2 41184  46.9977 164.2335 0003985 305.2072  54.8440 14.58932969562228
ORBCOMM FM113           
1 41185U 15081G   26190.65139477  .00000203  00000+0  79235-4 0  9998
2 41185  46.9993 164.4042 0002476 301.1460  58.9183 14.58878427562210
ORBCOMM FM108           
1 41187U 15081J   26190.13410208  .00000426  00000+0  12630-3 0  9999
2 41187  47.0051  78.4302 0002927 300.2625  59.7971 14.58904401563280
ORBCOMM FM117           
1 41188U 15081K   26189.07250359  .00000414  00000+0  12376-3 0  9994
2 41188  47.0014  82.0783 0003434 302.2374  57.8178 14.58889920563175
ORBCOMM FM116           
1 41189U 15081L   26190.62784344  .00000100  00000+0  57341-4 0  9998
2 41189  47.0010 164.5128 0001341 214.5781 145.5017 14.58902220562213
ZIYUAN 3-02 (ZY 3-02)   
1 41556U 16033A   26190.88221641  .00003726  00000+0  16882-3 0  9999
2 41556  97.3829 266.2199 0013508 203.7965 156.2648 15.21401220561434
CARTOSAT-2C             
1 41599U 16040A   26190.84966782  .00001653  00000+0  81656-4 0  9991
2 41599  97.4471 250.5144 0009917  60.8319 299.3907 15.19235223557151
LAPAN-A3                
1 41603U 16040E   26190.83858543  .00002386  00000+0  76533-4 0  9993
2 41603  97.1498 186.2428 0008364 299.6211  60.4199 15.33256204558284
GAOFEN-3                
1 41727U 16049A   26190.28492384  .00000150  00000+0  58640-4 0  9991
2 41727  98.4020 197.7374 0001760  90.0645 270.0746 14.42218672521834
CAS-2T & KS-1Q          
1 41847U 16066G   26190.12607526  .00000881  00000+0  13108-3 0  9992
2 41847  98.3814 265.6112 0342541  63.1325 300.4448 14.44761366507963
YUNHAI-1 01             
1 41857U 16068A   26190.86611600  .00000082  00000+0  46324-4 0  9994
2 41857  98.5853 201.6610 0003556   4.2958 355.8256 14.32718698505078
RESOURCESAT-2A          
1 41877U 16074A   26190.80430802 -.00000069  00000+0 -11393-4 0  9995
2 41877  98.7518 264.1232 0002697  39.9393 320.1982 14.21607682497515
TANSAT                  
1 41898U 16081A   26190.86513257  .00000133  00000+0  38250-4 0  9999
2 41898  98.5374 191.7934 0019207 237.5535 122.3807 14.59968699507934
JILIN-1 03              
1 41914U 17002B   26190.80566118  .00009804  00000+0  23064-3 0  9990
2 41914  97.1951 197.5788 0008022  93.6016 266.6149 15.42138455525346
